OBJECT_NAME,OBJECT_ID,EPOCH,MEAN_MOTION,ECCENTRICITY,INCLINATION,RA_OF_ASC_NODE,ARG_OF_PERICENTER,MEAN_ANOMALY,EPHEMERIS_TYPE,CLASSIFICATION_TYPE,NORAD_CAT_ID,ELEMENT_SET_NO,REV_AT_EPOCH,BSTAR,MEAN_MOTION_DOT,MEAN_MOTION_DDOT
STARLINK-35878,2025-303R,2026-06-07T17:08:43.504224,15.27597394,.0002893,43.0017,162.2711,270.4404,89.6116,0,U,67178,999,2650,.63036E-3,.17134E-3,0
STARLINK-35793,2025-303S,2026-06-07T17:05:01.528800,15.27598280,.0002215,42.9942,162.2505,262.7105,97.3494,0,U,67179,999,2650,.82158E-3,.22428E-3,0
STARLINK-35876,2025-303T,2026-06-07T17:03:10.763136,15.27593321,.0002015,42.9954,162.2398,268.5491,91.5130,0,U,67180,999,2650,.96812E-3,.26486E-3,0
STARLINK-35766,2025-303U,2026-06-07T16:48:23.207904,15.27585673,.0000509,43.0035,162.1633,163.2818,196.8051,0,U,67181,999,2650,.55839E-3,.15138E-3,0
STARLINK-35782,2025-303V,2026-06-07T07:08:38.089248,15.27588461,.0001405,42.9934,164.2940,121.1466,238.9524,0,U,67182,999,2644,.59015E-3,.16017E-3,0
STARLINK-35719,2025-303W,2026-06-07T16:42:51.323040,15.27565262,.0001337,43.0005,162.1284,270.4939,89.5759,0,U,67183,999,2650,.3489E-3,.9347E-4,0
STARLINK-35910,2025-303X,2026-06-07T07:03:05.019840,15.27598935,.0000269,42.9968,164.2657,211.8923,148.1913,0,U,67184,999,2644,.8946E-3,.24451E-3,0
STARLINK-35859,2025-303Y,2026-06-07T07:10:29.138304,15.27596301,.0000528,42.9994,164.3048,253.4535,106.6258,0,U,67185,999,2644,.7891E-3,.21526E-3,0
STARLINK-35857,2025-303Z,2026-06-07T16:57:37.477728,15.27593473,.0002078,42.9897,162.2059,271.3127,88.7486,0,U,67186,999,2650,.92886E-3,.25398E-3,0
STARLINK-35880,2025-303AA,2026-06-07T16:46:31.428768,15.27591452,.0002215,43.0001,162.1463,275.7402,84.3197,0,U,67187,999,2650,.67677E-3,.18414E-3,0
STARLINK-35675,2025-303AB,2026-06-07T07:01:27.001632,15.27600955,.0003152,43.0003,165.1197,277.4803,82.5690,0,U,67188,999,2643,.67627E-3,.18407E-3,0
STARLINK-35889,2025-303AC,2026-06-06T07:19:50.189664,15.27584412,.00002888,43.0015,170.6143,279.1220,80.9599,0,U,67189,999,2628,.84085629E-3,.22952E-3,0
STARLINK-35888,2025-303AD,2026-06-07T17:36:30.148128,15.27575134,.0000781,43.0036,162.4137,284.9849,75.0916,0,U,67190,999,2650,.49029E-3,.13252E-3,0
STARLINK-35716,2025-303AE,2026-06-07T06:59:35.714976,15.27570471,.0001479,42.9981,165.1054,256.9605,103.1082,0,U,67191,999,2643,-.97133E-4,-.2933E-4,0
STARLINK-36182,2025-304A,2026-06-07T16:13:23.585088,14.98330126,.000282,70.0015,307.5795,265.8761,94.2076,0,U,67192,999,2733,-.10564E-3,-.1353E-4,0
STARLINK-36279,2025-304B,2026-06-07T20:00:04.000032,14.98304779,.0003029,70.0013,307.1493,274.5214,237.7990,0,U,67193,999,571,.3887E-2,.46565E-3,0
STARLINK-36284,2025-304C,2026-06-07T16:37:11.924832,14.98337235,.0003019,70.0024,307.6349,264.1307,95.9508,0,U,67194,999,2736,.27653E-4,.237E-5,0
STARLINK-36291,2025-304D,2026-06-07T17:01:28.621056,14.98337330,.0003121,70.0017,307.6894,266.7280,93.3522,0,U,67195,999,2736,.25275E-3,.2925E-4,0
STARLINK-36239,2025-304E,2026-06-07T16:55:13.601856,14.98340887,.0003179,70.0009,307.6773,269.0703,91.0092,0,U,67196,999,2736,.1133E-3,.1259E-4,0
STARLINK-36283,2025-304F,2026-06-07T17:19:13.900224,14.98331683,.0002699,70.0026,307.3329,256.6866,103.3992,0,U,67197,999,2737,.11176E-3,.1241E-4,0
STARLINK-36267,2025-304G,2026-06-07T16:25:10.731072,14.98331342,.0002738,70.0016,307.6013,268.4101,91.6745,0,U,67198,999,2733,.13344E-3,.15E-4,0
STARLINK-36268,2025-304H,2026-06-07T16:37:26.371776,14.98336877,.0002589,70.0022,307.6283,265.1554,94.9310,0,U,67199,999,2735,.37604E-3,.4397E-4,0
STARLINK-36270,2025-304J,2026-06-07T17:37:30.268704,14.98328298,.0002616,70.0021,307.3816,266.9252,93.1608,0,U,67200,999,2737,.19455E-5,-.7E-6,0
STARLINK-36262,2025-304K,2026-06-07T16:49:13.033056,14.98330425,.0002671,70.0016,307.6614,271.8654,88.2199,0,U,67201,999,2736,-.18964E-4,-.319E-5,0
STARLINK-36263,2025-304L,2026-06-07T16:31:11.324928,14.98333660,.0003094,70.0017,307.6169,269.1942,90.8863,0,U,67202,999,2736,.19819E-3,.2273E-4,0
STARLINK-36224,2025-304M,2026-06-07T16:19:10.208928,14.98330698,.0002854,70.0016,307.5823,270.9385,89.1447,0,U,67203,999,2736,.14747E-3,.1667E-4,0
STARLINK-36185,2025-304N,2026-06-07T17:31:15.270240,14.98335376,.0003475,70.0007,307.3573,273.4720,86.6041,0,U,67204,999,2737,.41632E-3,.4879E-4,0
STARLINK-36197,2025-304P,2026-06-07T17:13:13.404000,14.98336785,.0003018,70.0014,307.3179,263.3475,96.7340,0,U,67205,999,2734,.31697E-3,.3692E-4,0
STARLINK-36056,2025-304Q,2026-06-07T16:49:27.420384,14.98334275,.000308,70.0012,307.6581,268.2028,91.8778,0,U,67206,999,2733,.18071E-3,.2064E-4,0
STARLINK-36225,2025-304R,2026-06-07T16:25:24.943008,14.98335429,.0002968,70.0012,307.5984,268.9495,91.1324,0,U,67207,999,2736,.23969E-3,.2768E-4,0
