[ {"name": "STARLINK-35878", "line1": "1 67178U 25303R   26158.71439241  .00017134  00000+0  63036-3 0  9991", "line2": "2 67178  43.0017 162.2711 0002893 270.4404  89.6116 15.27597394 26505"}, {"name": "STARLINK-35793", "line1": "1 67179U 25303S   26158.71182325  .00022428  00000+0  82158-3 0  9998", "line2": "2 67179  42.9942 162.2505 0002215 262.7105  97.3494 15.27598280 26502"}, {"name": "STARLINK-35876", "line1": "1 67180U 25303T   26158.71054124  .00026486  00000+0  96812-3 0  9995", "line2": "2 67180  42.9954 162.2398 0002015 268.5491  91.5130 15.27593321 26501"}, {"name": "STARLINK-35766", "line1": "1 67181U 25303U   26158.70026861  .00015138  00000+0  55839-3 0  9998", "line2": "2 67181  43.0035 162.1633 0000509 163.2818 196.8051 15.27585673 26507"}, {"name": "STARLINK-35782", "line1": "1 67182U 25303V   26158.29766307  .00016017  00000+0  59015-3 0  9996", "line2": "2 67182  42.9934 164.2940 0001405 121.1466 238.9524 15.27588461 26440"}, {"name": "STARLINK-35719", "line1": "1 67183U 25303W   26158.69642735  .00009347  00000+0  34890-3 0  9991", "line2": "2 67183  43.0005 162.1284 0001337 270.4939  89.5759 15.27565262 26508"}, {"name": "STARLINK-35910", "line1": "1 67184U 25303X   26158.29380810  .00024451  00000+0  89460-3 0  9997", "line2": "2 67184  42.9968 164.2657 0000269 211.8923 148.1913 15.27598935 26447"}, {"name": "STARLINK-35859", "line1": "1 67185U 25303Y   26158.29894836  .00021526  00000+0  78910-3 0  9994", "line2": "2 67185  42.9994 164.3048 0000528 253.4535 106.6258 15.27596301 26447"}, {"name": "STARLINK-35857", "line1": "1 67186U 25303Z   26158.70668377  .00025398  00000+0  92886-3 0  9999", "line2": "2 67186  42.9897 162.2059 0002078 271.3127  88.7486 15.27593473 26504"}, {"name": "STARLINK-35880", "line1": "1 67187U 25303AA  26158.69897487  .00018414  00000+0  67677-3 0  9995", "line2": "2 67187  43.0001 162.1463 0002215 275.7402  84.3197 15.27591452 26505"}, {"name": "STARLINK-35675", "line1": "1 67188U 25303AB  26158.29267363  .00018407  00000+0  67627-3 0  9993", "line2": "2 67188  43.0003 165.1197 0003152 277.4803  82.5690 15.27600955 26439"}, {"name": "STARLINK-35889", "line1": "1 67189U 25303AC  26157.30544201  .00022952  00000+0  84086-3 0  9992", "line2": "2 67189  43.0015 170.6143 0000288 279.1220  80.9599 15.27584412 26286"}, {"name": "STARLINK-35888", "line1": "1 67190U 25303AD  26158.73368227  .00013252  00000+0  49029-3 0  9995", "line2": "2 67190  43.0036 162.4137 0000781 284.9849  75.0916 15.27575134 26506"}, {"name": "STARLINK-35716", "line1": "1 67191U 25303AE  26158.29138559 -.00002933  00000+0 -97133-4 0  9996", "line2": "2 67191  42.9981 165.1054 0001479 256.9605 103.1082 15.27570471 26434"}, {"name": "STARLINK-36182", "line1": "1 67192U 25304A   26158.67596742 -.00001353  00000+0 -10564-3 0  9999", "line2": "2 67192  70.0015 307.5795 0002820 265.8761  94.2076 14.98330126 27333"}, {"name": "STARLINK-36279", "line1": "1 67193U 25304B   26158.83337963  .00046565  00000+0  38870-2 0  9997", "line2": "2 67193  70.0013 307.1493 0003029 274.5214 237.7990 14.98304779  5717"}, {"name": "STARLINK-36284", "line1": "1 67194U 25304C   26158.69249913  .00000237  00000+0  27653-4 0  9994", "line2": "2 67194  70.0024 307.6349 0003019 264.1307  95.9508 14.98337235 27369"}, {"name": "STARLINK-36291", "line1": "1 67195U 25304D   26158.70935904  .00002925  00000+0  25275-3 0  9992", "line2": "2 67195  70.0017 307.6894 0003121 266.7280  93.3522 14.98337330 27363"}, {"name": "STARLINK-36239", "line1": "1 67196U 25304E   26158.70501854  .00001259  00000+0  11330-3 0  9992", "line2": "2 67196  70.0009 307.6773 0003179 269.0703  91.0092 14.98340887 27368"}, {"name": "STARLINK-36283", "line1": "1 67197U 25304F   26158.72168866  .00001241  00000+0  11176-3 0  9996", "line2": "2 67197  70.0026 307.3329 0002699 256.6866 103.3992 14.98331683 27371"}, {"name": "STARLINK-36267", "line1": "1 67198U 25304G   26158.68415198  .00001500  00000+0  13344-3 0  9992", "line2": "2 67198  70.0016 307.6013 0002738 268.4101  91.6745 14.98331342 27334"}, {"name": "STARLINK-36268", "line1": "1 67199U 25304H   26158.69266634  .00004397  00000+0  37604-3 0  9995", "line2": "2 67199  70.0022 307.6283 0002589 265.1554  94.9310 14.98336877 27355"}, {"name": "STARLINK-36270", "line1": "1 67200U 25304J   26158.73437811 -.00000070  00000+0  19455-5 0  9991", "line2": "2 67200  70.0021 307.3816 0002616 266.9252  93.1608 14.98328298 27372"}, {"name": "STARLINK-36262", "line1": "1 67201U 25304K   26158.70084529 -.00000319  00000+0 -18964-4 0  9993", "line2": "2 67201  70.0016 307.6614 0002671 271.8654  88.2199 14.98330425 27362"}, {"name": "STARLINK-36263", "line1": "1 67202U 25304L   26158.68832552  .00002273  00000+0  19819-3 0  9996", "line2": "2 67202  70.0017 307.6169 0003094 269.1942  90.8863 14.98333660 27360"}, {"name": "STARLINK-36224", "line1": "1 67203U 25304M   26158.67997927  .00001667  00000+0  14747-3 0  9995", "line2": "2 67203  70.0016 307.5823 0002854 270.9385  89.1447 14.98330698 27367"}, {"name": "STARLINK-36185", "line1": "1 67204U 25304N   26158.73003785  .00004879  00000+0  41632-3 0  9994", "line2": "2 67204  70.0007 307.3573 0003475 273.4720  86.6041 14.98335376 27370"}, {"name": "STARLINK-36197", "line1": "1 67205U 25304P   26158.71751625  .00003692  00000+0  31697-3 0  9998", "line2": "2 67205  70.0014 307.3179 0003018 263.3475  96.7340 14.98336785 27345"}, {"name": "STARLINK-36056", "line1": "1 67206U 25304Q   26158.70101181  .00002064  00000+0  18071-3 0  9997", "line2": "2 67206  70.0012 307.6581 0003080 268.2028  91.8778 14.98334275 27333"}, {"name": "STARLINK-36225", "line1": "1 67207U 25304R   26158.68431647  .00002768  00000+0  23969-3 0  9991", "line2": "2 67207  70.0012 307.5984 0002968 268.9495  91.1324 14.98335429 27364"}]